{"fetched_at":"2026-07-07T07:58:10.717Z","source":"https://celestrak.org/NORAD/elements/gp.php?GROUP=oneweb&FORMAT=JSON","constellation":"oneweb","records":[{"OBJECT_NAME":"ONEWEB-0683","OBJECT_ID":"2023-068K","EPOCH":"2026-07-06T16:16:36.729696","CLASSIFICATION_TYPE":"U","MEAN_MOTION":13.15548166,"ECCENTRICITY":0.0002287,"INCLINATION":87.9002,"RA_OF_ASC_NODE":255.3125,"ARG_OF_PERICENTER":95.142,"MEAN_ANOMALY":264.9971,"EPHEMERIS_TYPE":0,"NORAD_CAT_ID":56719,"ELEMENT_SET_NO":999,"REV_AT_EPOCH":15198,"BSTAR":-0.00044199,"MEAN_MOTION_DOT":-0.00000154,"MEAN_MOTION_DDOT":0},{"OBJECT_NAME":"ONEWEB-0684","OBJECT_ID":"2023-068L","EPOCH":"2026-07-06T16:28:01.474752","CLASSIFICATION_TYPE":"U","MEAN_MOTION":13.1554896,"ECCENTRICITY":0.0002651,"INCLINATION":87.8997,"RA_OF_ASC_NODE":255.3003,"ARG_OF_PERICENTER":128.6312,"MEAN_ANOMALY":231.5056,"EPHEMERIS_TYPE":0,"NORAD_CAT_ID":56720,"ELEMENT_SET_NO":999,"REV_AT_EPOCH":15181,"BSTAR":-0.00011178,"MEAN_MOTION_DOT":-2.9e-7,"MEAN_MOTION_DDOT":0},{"OBJECT_NAME":"ONEWEB-0686","OBJECT_ID":"2023-068M","EPOCH":"2026-07-06T13:59:59.013024","CLASSIFICATION_TYPE":"U","MEAN_MOTION":13.16593617,"ECCENTRICITY":0.0002412,"INCLINATION":87.9073,"RA_OF_ASC_NODE":224.9391,"ARG_OF_PERICENTER":96.8854,"MEAN_ANOMALY":263.2552,"EPHEMERIS_TYPE":0,"NORAD_CAT_ID":56721,"ELEMENT_SET_NO":999,"REV_AT_EPOCH":15426,"BSTAR":-0.000061596,"MEAN_MOTION_DOT":-1.1e-7,"MEAN_MOTION_DDOT":0},{"OBJECT_NAME":"ONEWEB-0694","OBJECT_ID":"2023-068N","EPOCH":"2026-07-06T14:09:06.013152","CLASSIFICATION_TYPE":"U","MEAN_MOTION":13.16593194,"ECCENTRICITY":0.0002418,"INCLINATION":87.9093,"RA_OF_ASC_NODE":224.9064,"ARG_OF_PERICENTER":86.321,"MEAN_ANOMALY":273.8197,"EPHEMERIS_TYPE":0,"NORAD_CAT_ID":56722,"ELEMENT_SET_NO":999,"REV_AT_EPOCH":15432,"BSTAR":-0.00017941,"MEAN_MOTION_DOT":-5.6e-7,"MEAN_MOTION_DDOT":0},{"OBJECT_NAME":"ONEWEB-0696","OBJECT_ID":"2023-068P","EPOCH":"2026-07-06T17:15:56.471904","CLASSIFICATION_TYPE":"U","MEAN_MOTION":13.1554917,"ECCENTRICITY":0.0001847,"INCLINATION":87.8994,"RA_OF_ASC_NODE":255.3303,"ARG_OF_PERICENTER":112.5215,"MEAN_ANOMALY":247.6111,"EPHEMERIS_TYPE":0,"NORAD_CAT_ID":56723,"ELEMENT_SET_NO":999,"REV_AT_EPOCH":15193,"BSTAR":0.00037451,"MEAN_MOTION_DOT":0.00000154,"MEAN_MOTION_DDOT":0},{"OBJECT_NAME":"ONEWEB-0703","OBJECT_ID":"2023-068Q","EPOCH":"2026-07-06T17:29:37.113792","CLASSIFICATION_TYPE":"U","MEAN_MOTION":13.15547893,"ECCENTRICITY":0.0001403,"INCLINATION":87.8993,"RA_OF_ASC_NODE":255.3097,"ARG_OF_PERICENTER":120.113,"MEAN_ANOMALY":240.0139,"EPHEMERIS_TYPE":0,"NORAD_CAT_ID":56724,"ELEMENT_SET_NO":999,"REV_AT_EPOCH":15182,"BSTAR":0.0003059,"MEAN_MOTION_DOT":0.00000128,"MEAN_MOTION_DDOT":0},{"OBJECT_NAME":"ONEWEB-0721","OBJECT_ID":"2023-068R","EPOCH":"2026-07-06T17:39:16.437024","CLASSIFICATION_TYPE":"U","MEAN_MOTION":13.22470047,"ECCENTRICITY":0.0001804,"INCLINATION":86.6755,"RA_OF_ASC_NODE":79.2767,"ARG_OF_PERICENTER":78.4132,"MEAN_ANOMALY":281.7203,"EPHEMERIS_TYPE":0,"NORAD_CAT_ID":56725,"ELEMENT_SET_NO":999,"REV_AT_EPOCH":16052,"BSTAR":-0.000007416,"MEAN_MOTION_DOT":1.1e-7,"MEAN_MOTION_DDOT":0},{"OBJECT_NAME":"ONEWEB-0015","OBJECT_ID":"2024-188A","EPOCH":"2026-07-06T18:21:48.204000","CLASSIFICATION_TYPE":"U","MEAN_MOTION":13.114142,"ECCENTRICITY":0.0001719,"INCLINATION":87.8876,"RA_OF_ASC_NODE":17.1941,"ARG_OF_PERICENTER":72.2167,"MEAN_ANOMALY":287.9149,"EPHEMERIS_TYPE":0,"NORAD_CAT_ID":61594,"ELEMENT_SET_NO":999,"REV_AT_EPOCH":8702,"BSTAR":0.00022389,"MEAN_MOTION_DOT":9.2e-7,"MEAN_MOTION_DDOT":0},{"OBJECT_NAME":"ONEWEB-0687","OBJECT_ID":"2024-188B","EPOCH":"2026-07-06T17:54:47.187072","CLASSIFICATION_TYPE":"U","MEAN_MOTION":13.17649596,"ECCENTRICITY":0.0002153,"INCLINATION":87.9131,"RA_OF_ASC_NODE":1.9839,"ARG_OF_PERICENTER":79.3679,"MEAN_ANOMALY":280.7695,"EPHEMERIS_TYPE":0,"NORAD_CAT_ID":61595,"ELEMENT_SET_NO":999,"REV_AT_EPOCH":8847,"BSTAR":-0.000029199,"MEAN_MOTION_DOT":2e-8,"MEAN_MOTION_DDOT":0},{"OBJECT_NAME":"ONEWEB-0688","OBJECT_ID":"2024-188C","EPOCH":"2026-07-06T18:36:04.908384","CLASSIFICATION_TYPE":"U","MEAN_MOTION":13.17650664,"ECCENTRICITY":0.0001708,"INCLINATION":87.9133,"RA_OF_ASC_NODE":1.9781,"ARG_OF_PERICENTER":51.109,"MEAN_ANOMALY":309.0194,"EPHEMERIS_TYPE":0,"NORAD_CAT_ID":61596,"ELEMENT_SET_NO":999,"REV_AT_EPOCH":8847,"BSTAR":0.0001493,"MEAN_MOTION_DOT":7.1e-7,"MEAN_MOTION_DDOT":0},{"OBJECT_NAME":"ONEWEB-0689","OBJECT_ID":"2024-188D","EPOCH":"2026-07-06T13:41:01.322016","CLASSIFICATION_TYPE":"U","MEAN_MOTION":13.11418343,"ECCENTRICITY":0.0002156,"INCLINATION":87.8892,"RA_OF_ASC_NODE":17.1937,"ARG_OF_PERICENTER":86.8785,"MEAN_ANOMALY":273.2589,"EPHEMERIS_TYPE":0,"NORAD_CAT_ID":61597,"ELEMENT_SET_NO":999,"REV_AT_EPOCH":8699,"BSTAR":-0.00041723,"MEAN_MOTION_DOT":-0.00000135,"MEAN_MOTION_DDOT":0},{"OBJECT_NAME":"ONEWEB-0690","OBJECT_ID":"2024-188E","EPOCH":"2026-07-06T13:55:41.305152","CLASSIFICATION_TYPE":"U","MEAN_MOTION":13.11417917,"ECCENTRICITY":0.0001351,"INCLINATION":87.8889,"RA_OF_ASC_NODE":17.2024,"ARG_OF_PERICENTER":103.1976,"MEAN_ANOMALY":256.9303,"EPHEMERIS_TYPE":0,"NORAD_CAT_ID":61598,"ELEMENT_SET_NO":999,"REV_AT_EPOCH":8717,"BSTAR":0.00062564,"MEAN_MOTION_DOT":0.00000234,"MEAN_MOTION_DDOT":0},{"OBJECT_NAME":"ONEWEB-0691","OBJECT_ID":"2024-188F","EPOCH":"2026-07-06T13:48:21.339072","CLASSIFICATION_TYPE":"U","MEAN_MOTION":13.11417805,"ECCENTRICITY":0.0001893,"INCLINATION":87.8897,"RA_OF_ASC_NODE":17.1138,"ARG_OF_PERICENTER":76.3233,"MEAN_ANOMALY":283.8106,"EPHEMERIS_TYPE":0,"NORAD_CAT_ID":61599,"ELEMENT_SET_NO":999,"REV_AT_EPOCH":8702,"BSTAR":0.00034856,"MEAN_MOTION_DOT":0.00000136,"MEAN_MOTION_DDOT":0},{"OBJECT_NAME":"ONEWEB-0692","OBJECT_ID":"2024-188G","EPOCH":"2026-07-06T12:27:47.987424","CLASSIFICATION_TYPE":"U","MEAN_MOTION":13.11416701,"ECCENTRICITY":0.0002501,"INCLINATION":87.8879,"RA_OF_ASC_NODE":17.2348,"ARG_OF_PERICENTER":101.1297,"MEAN_ANOMALY":259.0113,"EPHEMERIS_TYPE":0,"NORAD_CAT_ID":61600,"ELEMENT_SET_NO":999,"REV_AT_EPOCH":8700,"BSTAR":0.0015331,"MEAN_MOTION_DOT":0.00000556,"MEAN_MOTION_DDOT":0},{"OBJECT_NAME":"ONEWEB-0693","OBJECT_ID":"2024-188H","EPOCH":"2026-07-06T11:35:42.749952","CLASSIFICATION_TYPE":"U","MEAN_MOTION":13.17649747,"ECCENTRICITY":0.00011441,"INCLINATION":87.9129,"RA_OF_ASC_NODE":2.0553,"ARG_OF_PERICENTER":104.5514,"MEAN_ANOMALY":255.5745,"EPHEMERIS_TYPE":0,"NORAD_CAT_ID":61601,"ELEMENT_SET_NO":999,"REV_AT_EPOCH":8842,"BSTAR":0.000085525592,"MEAN_MOTION_DOT":4.6e-7,"MEAN_MOTION_DDOT":0},{"OBJECT_NAME":"ONEWEB-0695","OBJECT_ID":"2024-188J","EPOCH":"2026-07-06T13:43:28.424064","CLASSIFICATION_TYPE":"U","MEAN_MOTION":13.11418097,"ECCENTRICITY":0.0002365,"INCLINATION":87.888,"RA_OF_ASC_NODE":17.2162,"ARG_OF_PERICENTER":91.7786,"MEAN_ANOMALY":268.3612,"EPHEMERIS_TYPE":0,"NORAD_CAT_ID":61602,"ELEMENT_SET_NO":999,"REV_AT_EPOCH":8700,"BSTAR":-0.00027866,"MEAN_MOTION_DOT":-8.6e-7,"MEAN_MOTION_DDOT":0}]}
