ONEWEB-0683             
1 56719U 23068K   26187.67820289 -.00000154  00000+0 -44199-3 0  9994
2 56719  87.9002 255.3125 0002287  95.1420 264.9971 13.15548166151981
ONEWEB-0684             
1 56720U 23068L   26187.68612818 -.00000029  00000+0 -11178-3 0  9996
2 56720  87.8997 255.3003 0002651 128.6312 231.5056 13.15548960151815
ONEWEB-0686             
1 56721U 23068M   26187.58332191 -.00000011  00000+0 -61596-4 0  9990
2 56721  87.9073 224.9391 0002412  96.8854 263.2552 13.16593617154261
ONEWEB-0694             
1 56722U 23068N   26187.58965293 -.00000056  00000+0 -17941-3 0  9999
2 56722  87.9093 224.9064 0002418  86.3210 273.8197 13.16593194154326
ONEWEB-0696             
1 56723U 23068P   26187.71940361  .00000154  00000+0  37451-3 0  9999
2 56723  87.8994 255.3303 0001847 112.5215 247.6111 13.15549170151935
ONEWEB-0703             
1 56724U 23068Q   26187.72890178  .00000128  00000+0  30590-3 0  9999
2 56724  87.8993 255.3097 0001403 120.1130 240.0139 13.15547893151829
ONEWEB-0721             
1 56725U 23068R   26187.73560691  .00000011  00000+0 -74160-5 0  9990
2 56725  86.6755  79.2767 0001804  78.4132 281.7203 13.22470047160527
ONEWEB-0015             
1 61594U 24188A   26187.76514125  .00000092  00000+0  22389-3 0  9990
2 61594  87.8876  17.1941 0001719  72.2167 287.9149 13.11414200 87021
ONEWEB-0687             
1 61595U 24188B   26187.74637948  .00000002  00000+0 -29199-4 0  9997
2 61595  87.9131   1.9839 0002153  79.3679 280.7695 13.17649596 88474
ONEWEB-0688             
1 61596U 24188C   26187.77505681  .00000071  00000+0  14930-3 0  9990
2 61596  87.9133   1.9781 0001708  51.1090 309.0194 13.17650664 88470
ONEWEB-0689             
1 61597U 24188D   26187.57015419 -.00000135  00000+0 -41723-3 0  9997
2 61597  87.8892  17.1937 0002156  86.8785 273.2589 13.11418343 86993
ONEWEB-0690             
1 61598U 24188E   26187.58033918  .00000234  00000+0  62564-3 0  9997
2 61598  87.8889  17.2024 0001351 103.1976 256.9303 13.11417917 87178
ONEWEB-0691             
1 61599U 24188F   26187.57524698  .00000136  00000+0  34856-3 0  9991
2 61599  87.8897  17.1138 0001893  76.3233 283.8106 13.11417805 87021
ONEWEB-0692             
1 61600U 24188G   26187.51930541  .00000556  00000+0  15331-2 0  9998
2 61600  87.8879  17.2348 0002501 101.1297 259.0113 13.11416701 87007
ONEWEB-0693             
1 61601U 24188H   26187.48313368  .00000046  00000+0  85526-4 0  9996
2 61601  87.9129   2.0553 0001144 104.5514 255.5745 13.17649747 88421
ONEWEB-0695             
1 61602U 24188J   26187.57185676 -.00000086  00000+0 -27866-3 0  9994
2 61602  87.8880  17.2162 0002365  91.7786 268.3612 13.11418097 87007
